ONEWEB-0597             
1 54663U 22166X   26166.24386107  .00000030  00000+0  41177-4 0  9999
2 54663  87.9253 244.3742 0002045  95.4115 264.7252 13.21827049171286
ONEWEB-0600             
1 54664U 22166Y   26165.77116516 -.00000063  00000+0 -18497-3 0  9998
2 54664  87.9255 244.4597 0001870  96.2431 263.8916 13.21823650171194
ONEWEB-0601             
1 54665U 22166Z   26165.91415456 -.00000092  00000+0 -25388-3 0  9999
2 54665  87.9252 244.4472 0002132  92.2522 267.8856 13.21825454171408
ONEWEB-0602             
1 54666U 22166AA  26166.25815332  .00000064  00000+0  12307-3 0  9999
2 54666  87.9255 244.3848 0001765  94.9125 265.2211 13.21825850171291
ONEWEB-0603             
1 54667U 22166AB  26166.26404986 -.00000032  00000+0 -10900-3 0  9994
2 54667  87.9265 244.3406 0001998  95.9117 264.2245 13.21826216171229
ONEWEB-0604             
1 54668U 22166AC  26166.25226137  .00000104  00000+0  22019-3 0  9996
2 54668  87.9263 244.3585 0001998 101.1320 259.0038 13.21827851171185
ONEWEB-0605             
1 54669U 22166AD  26166.24554759  .00000082  00000+0  16660-3 0  9990
2 54669  87.9255 244.3734 0002573  90.5583 269.5846 13.21827172171252
ONEWEB-0606             
1 54670U 22166AE  26166.26741186  .00000013  00000+0 -66072-6 0  9996
2 54670  87.9257 244.3815 0001975 103.7419 256.3935 13.21826289171314
ONEWEB-0607             
1 54671U 22166AF  26166.23375430  .00000142  00000+0  31174-3 0  9993
2 54671  87.9260 244.3589 0001964  94.7605 265.3754 13.21824753171280
ONEWEB-0608             
1 54672U 22166AG  26166.24048330  .00000153  00000+0  33779-3 0  9996
2 54672  87.9263 244.3543 0002310  87.0846 273.0553 13.21827993171295
ONEWEB-0610             
1 54673U 22166AH  26166.14460038  .00000074  00000+0  14822-3 0  9999
2 54673  87.9254 244.3877 0002123  81.9727 278.1648 13.21824538171180
ONEWEB-0611             
1 54674U 22166AJ  26166.28925393  .00000043  00000+0  73696-4 0  9996
2 54674  87.9253 244.3550 0002042 102.9815 257.1547 13.21828425171195
ONEWEB-0612             
1 54675U 22166AK  26166.22703530  .00000131  00000+0  28638-3 0  9991
2 54675  87.9266 244.3626 0002096  94.5898 265.5475 13.21825674171174
ONEWEB-0615             
1 54676U 22166AL  26166.28255124  .00000033  00000+0  47664-4 0  9991
2 54676  87.9256 244.3664 0001857 105.4892 254.6447 13.21827085171194
ONEWEB-0655             
1 54677U 22166AM  26166.25900070  .00000025  00000+0  28713-4 0  9991
2 54677  87.9256 244.3724 0001831  94.0138 266.1205 13.21826725171189
ONEWEB-0659             
1 54678U 22166AN  26166.27581843 -.00000054  00000+0 -16202-3 0  9990
2 54678  87.9257 244.3688 0002074 100.7174 259.4193 13.21827694171272
ONEWEB-0685             
1 54679U 22166AP  26166.27593645 -.00000043  00000+0 -13599-3 0  9998
2 54679  87.9253 244.3610 0002033  87.9903 272.1464 13.21847291171161
ONEWEB-0712             
1 54680U 22166AQ  26166.23609391  .00000154  00000+0  36850-3 0  9998
2 54680  87.9100 229.1620 0001568  91.2952 268.8359 13.16593872171803
ONEWEB-0714             
1 54681U 22166AR  26166.28085125  .00000075  00000+0  14938-3 0  9992
2 54681  87.9253 244.3574 0001692  98.5044 261.6282 13.21824437171288
ONEWEB-0532             
1 55140U 23004A   26166.28653763  .00008668  00000+0  22229-1 0  9990
2 55140  87.9134   6.2430 0002206  89.0600 271.0784 13.17776530167336
ONEWEB-0533             
1 55141U 23004B   26166.01781649 -.00000139  00000+0 -42100-3 0  9996
2 55141  87.8944 351.1022 0001823  83.7712 276.3624 13.12444737167778
ONEWEB-0541             
1 55142U 23004C   26166.12228867  .00000494  00000+0  13570-2 0  9997
2 55142  87.8897  21.4689 0001876  90.4335 269.7008 13.11419338165673
ONEWEB-0543             
1 55143U 23004D   26166.19108274 -.00000018  00000+0 -77692-4 0  9995
2 55143  87.9159 335.8669 0001633  91.5601 268.5718 13.18685103169430
ONEWEB-0544             
1 55144U 23004E   26166.18434014 -.00000037  00000+0 -12691-3 0  9997
2 55144  87.9159 335.8680 0001730  98.0730 262.0599 13.18685919169438
ONEWEB-0560             
1 55145U 23004F   26166.17759530 -.00000043  00000+0 -14245-3 0  9994
2 55145  87.9161 335.8585 0001623  98.5155 261.6161 13.18687156169449
ONEWEB-0565             
1 55146U 23004G   26166.17085170 -.00000020  00000+0 -83190-4 0  9998
2 55146  87.9151 335.8880 0002005 104.1002 256.0353 13.18685805169436
ONEWEB-0567             
1 55147U 23004H   26166.16411036  .00000020  00000+0  16932-4 0  9990
2 55147  87.9159 335.8734 0001853 104.0869 256.0469 13.18685852169433
ONEWEB-0569             
1 55148U 23004J   26166.17986329  .00000279  00000+0  72891-3 0  9995
2 55148  87.8958 320.6191 0001537 126.5722 233.5549 13.13470036169918
ONEWEB-0570             
1 55149U 23004K   26166.00391489  .00000003  00000+0 -25337-4 0  9995
2 55149  87.9157 335.9031 0002216  94.8472 265.2914 13.18685533169404
ONEWEB-0571             
1 55150U 23004L   26166.22480674  .00000020  00000+0  17639-4 0  9990
2 55150  87.9158 335.8585 0002190 128.1398 231.9932 13.18688233169443
