OBJECT_NAME,OBJECT_ID,EPOCH,MEAN_MOTION,ECCENTRICITY,INCLINATION,RA_OF_ASC_NODE,ARG_OF_PERICENTER,MEAN_ANOMALY,EPHEMERIS_TYPE,CLASSIFICATION_TYPE,NORAD_CAT_ID,ELEMENT_SET_NO,REV_AT_EPOCH,BSTAR,MEAN_MOTION_DOT,MEAN_MOTION_DDOT
ONEWEB-0597,2022-166X,2026-06-15T05:51:09.596448,13.21827049,.00020451,87.9253,244.3742,95.4115,264.7252,0,U,54663,999,17128,.41177355E-4,.3E-6,0
ONEWEB-0600,2022-166Y,2026-06-14T18:30:28.669824,13.21823650,.00018707,87.9255,244.4597,96.2431,263.8916,0,U,54664,999,17119,-.18497079E-3,-.63E-6,0
ONEWEB-0601,2022-166Z,2026-06-14T21:56:22.953984,13.21825454,.0002132,87.9252,244.4472,92.2522,267.8856,0,U,54665,999,17140,-.25388E-3,-.92E-6,0
ONEWEB-0602,2022-166AA,2026-06-15T06:11:44.446848,13.21825850,.00017659,87.9255,244.3848,94.9125,265.2211,0,U,54666,999,17129,.12306737E-3,.64E-6,0
ONEWEB-0603,2022-166AB,2026-06-15T06:20:13.907904,13.21826216,.00019981,87.9265,244.3406,95.9117,264.2245,0,U,54667,999,17122,-.10899912E-3,-.32E-6,0
ONEWEB-0604,2022-166AC,2026-06-15T06:03:15.382368,13.21827851,.00019989,87.9263,244.3585,101.1320,259.0038,0,U,54668,999,17118,.22018675E-3,.104E-5,0
ONEWEB-0605,2022-166AD,2026-06-15T05:53:35.311776,13.21827172,.00025736,87.9255,244.3734,90.5583,269.5846,0,U,54669,999,17125,.16660004E-3,.82E-6,0
ONEWEB-0606,2022-166AE,2026-06-15T06:25:04.384704,13.21826289,.00019757,87.9257,244.3815,103.7419,256.3935,0,U,54670,999,17131,-.660722E-6,.13E-6,0
ONEWEB-0607,2022-166AF,2026-06-15T05:36:36.371520,13.21824753,.00019645,87.9260,244.3589,94.7605,265.3754,0,U,54671,999,17128,.31174016E-3,.142E-5,0
ONEWEB-0608,2022-166AG,2026-06-15T05:46:17.757120,13.21827993,.00023104,87.9263,244.3543,87.0846,273.0553,0,U,54672,999,17129,.33778797E-3,.153E-5,0
ONEWEB-0610,2022-166AH,2026-06-15T03:28:13.472832,13.21824538,.00021231,87.9254,244.3877,81.9727,278.1648,0,U,54673,999,17118,.1482194E-3,.74E-6,0
ONEWEB-0611,2022-166AJ,2026-06-15T06:56:31.539552,13.21828425,.0002042,87.9253,244.3550,102.9815,257.1547,0,U,54674,999,17119,.73695885E-4,.43E-6,0
ONEWEB-0612,2022-166AK,2026-06-15T05:26:55.849920,13.21825674,.00020967,87.9266,244.3626,94.5898,265.5475,0,U,54675,999,17117,.28637584E-3,.131E-5,0
ONEWEB-0615,2022-166AL,2026-06-15T06:46:52.427136,13.21827085,.00018577,87.9256,244.3664,105.4892,254.6447,0,U,54676,999,17119,.47663532E-4,.33E-6,0
ONEWEB-0655,2022-166AM,2026-06-15T06:12:57.660480,13.21826725,.0001831,87.9256,244.3724,94.0138,266.1205,0,U,54677,999,17118,.28712577E-4,.25E-6,0
ONEWEB-0659,2022-166AN,2026-06-15T06:37:10.712352,13.21827694,.00020745,87.9257,244.3688,100.7174,259.4193,0,U,54678,999,17127,-.16201739E-3,-.54E-6,0
ONEWEB-0685,2022-166AP,2026-06-15T06:37:20.909280,13.21847291,.00020332,87.9253,244.3610,87.9903,272.1464,0,U,54679,999,17116,-.13599411E-3,-.43E-6,0
ONEWEB-0712,2022-166AQ,2026-06-15T05:39:58.513824,13.16593872,.00015689,87.9100,229.1620,91.2952,268.8359,0,U,54680,999,17180,.36849651E-3,.154E-5,0
ONEWEB-0714,2022-166AR,2026-06-15T06:44:25.548000,13.21824437,.00016923,87.9253,244.3574,98.5044,261.6282,0,U,54681,999,17128,.14938373E-3,.75E-6,0
ONEWEB-0532,2023-004A,2026-06-15T06:52:36.851232,13.17776530,.00022068,87.9134,6.2430,89.0600,271.0784,0,U,55140,999,16733,.22228776E-1,.8668E-4,0
ONEWEB-0533,2023-004B,2026-06-15T00:25:39.344736,13.12444737,.00018231,87.8944,351.1022,83.7712,276.3624,0,U,55141,999,16777,-.42100426E-3,-.139E-5,0
ONEWEB-0541,2023-004C,2026-06-15T02:56:05.741088,13.11419338,.00018761,87.8897,21.4689,90.4335,269.7008,0,U,55142,999,16567,.13570229E-2,.494E-5,0
ONEWEB-0543,2023-004D,2026-06-15T04:35:09.548736,13.18685103,.00016333,87.9159,335.8669,91.5601,268.5718,0,U,55143,999,16943,-.7769165E-4,-.18E-6,0
ONEWEB-0544,2023-004E,2026-06-15T04:25:26.988096,13.18685919,.00017305,87.9159,335.8680,98.0730,262.0599,0,U,55144,999,16943,-.1269143E-3,-.37E-6,0
ONEWEB-0560,2023-004F,2026-06-15T04:15:44.233920,13.18687156,.00016234,87.9161,335.8585,98.5155,261.6161,0,U,55145,999,16944,-.1424534E-3,-.43E-6,0
ONEWEB-0565,2023-004G,2026-06-15T04:06:01.586880,13.18685805,.00020055,87.9151,335.8880,104.1002,256.0353,0,U,55146,999,16943,-.83189835E-4,-.2E-6,0
ONEWEB-0567,2023-004H,2026-06-15T03:56:19.135104,13.18685852,.00018532,87.9159,335.8734,104.0869,256.0469,0,U,55147,999,16943,.16932355E-4,.2E-6,0
ONEWEB-0569,2023-004J,2026-06-15T04:19:00.188256,13.13470036,.00015378,87.8958,320.6191,126.5722,233.5549,0,U,55148,999,16991,.72890601E-3,.279E-5,0
ONEWEB-0570,2023-004K,2026-06-15T00:05:38.246496,13.18685533,.00022164,87.9157,335.9031,94.8472,265.2914,0,U,55149,999,16940,-.25337356E-4,.3E-7,0
ONEWEB-0571,2023-004L,2026-06-15T05:23:43.302336,13.18688233,.00021902,87.9158,335.8585,128.1398,231.9932,0,U,55150,999,16944,.17638842E-4,.2E-6,0
